OBJECT_NAME,OBJECT_ID,EPOCH,MEAN_MOTION,ECCENTRICITY,INCLINATION,RA_OF_ASC_NODE,ARG_OF_PERICENTER,MEAN_ANOMALY,EPHEMERIS_TYPE,CLASSIFICATION_TYPE,NORAD_CAT_ID,ELEMENT_SET_NO,REV_AT_EPOCH,BSTAR,MEAN_MOTION_DOT,MEAN_MOTION_DDOT
GOSAT-GW (IBUKI GW),2025-141A,2026-06-17T20:55:37.736256,14.67553547,.0001423,98.0568,106.1781,85.0881,275.0486,0,U,64694,999,5194,.1422E-4,.33E-6,0
IONOSFERA-M 3,2025-155A,2026-06-17T19:24:51.588288,14.21486548,.0001059,98.6024,130.6982,155.5355,204.5873,0,U,64876,999,4649,.33197E-4,.3E-6,0
IONOSFERA-M 4,2025-155B,2026-06-17T20:15:01.817856,14.21488749,.0001069,98.6030,130.6497,120.2313,239.8970,0,U,64877,999,4649,.37603E-4,.39E-6,0
MICROCARB,2025-156A,2026-06-17T18:16:24.502080,14.72325978,.0014961,97.9832,245.8885,270.2227,89.7266,0,U,64899,999,4805,.69523E-4,.39E-5,0
CO3D 3,2025-156B,2026-06-17T18:43:15.428352,15.20198971,.0001497,97.4331,247.4647,128.7197,231.4172,0,U,64900,999,4962,.16427E-3,.349E-4,0
CO3D 4,2025-156C,2026-06-17T15:33:54.199008,15.20201715,.0000112,97.4333,247.3348,1.7438,358.3797,0,U,64901,999,4960,.13681E-4,.229E-5,0
CO3D 2,2025-156D,2026-06-17T19:30:14.774400,15.20201344,.0001483,97.4330,247.3956,106.6705,253.4693,0,U,64902,999,4962,.17215E-3,.3661E-4,0
CO3D 1,2025-156E,2026-06-17T19:30:27.941760,15.20201370,.0001266,97.4329,247.3959,108.7280,251.4093,0,U,64903,999,4962,.20241E-3,.4316E-4,0
PRSC-S1,2025-164A,2026-06-17T17:28:21.645120,15.06462716,.0006514,41.1310,284.7669,347.4331,12.6319,0,U,65055,999,4851,.26795E-3,.3849E-4,0
SENTINEL-6B,2025-264A,2026-06-17T07:40:53.126112,12.80929950,.00080162,66.0395,134.9024,269.1832,90.8264,0,U,66514,999,2718,-.34173805E-4,-.69E-6,0
CAS500-3,2025-274F,2026-06-17T18:04:27.092640,14.88322100,.0006769,97.7445,96.7912,108.6905,251.5047,0,U,66655,999,3023,.1142E-3,.1003E-4,0
CSG-3,2026-001A,2026-06-17T11:15:28.581120,14.82153956,.00013792,97.8887,352.0668,94.6781,265.4590,0,U,67304,999,2450,.35797422E-4,.233E-5,0
PRSC-E03,2026-092A,2026-06-17T18:50:00.047328,15.06670977,.0003602,38.0008,86.1566,9.2031,350.8796,0,U,68835,999,804,.14915E-3,.2147E-4,0
CAS500-2,2026-100AK,2026-06-17T16:17:13.775424,15.20594961,.0010665,97.4073,66.5250,33.2391,326.9512,0,U,69013,999,688,.23718E-3,.5136E-4,0
