GOSAT-GW (IBUKI GW)     
1 64694U 25141A   26168.87196454  .00000033  00000+0  14220-4 0  9997
2 64694  98.0568 106.1781 0001423  85.0881 275.0486 14.67553547 51949
IONOSFERA-M 3           
1 64876U 25155A   26168.80893042  .00000030  00000+0  33197-4 0  9995
2 64876  98.6024 130.6982 0001059 155.5355 204.5873 14.21486548 46490
IONOSFERA-M 4           
1 64877U 25155B   26168.84377104  .00000039  00000+0  37603-4 0  9991
2 64877  98.6030 130.6497 0001069 120.2313 239.8970 14.21488749 46497
MICROCARB               
1 64899U 25156A   26168.76139470  .00000390  00000+0  69523-4 0  9995
2 64899  97.9832 245.8885 0014961 270.2227  89.7266 14.72325978 48052
CO3D 3                  
1 64900U 25156B   26168.78003968  .00003490  00000+0  16427-3 0  9990
2 64900  97.4331 247.4647 0001497 128.7197 231.4172 15.20198971 49622
CO3D 4                  
1 64901U 25156C   26168.64854397  .00000229  00000+0  13681-4 0  9993
2 64901  97.4333 247.3348 0000112   1.7438 358.3797 15.20201715 49604
CO3D 2                  
1 64902U 25156D   26168.81267100  .00003661  00000+0  17215-3 0  9992
2 64902  97.4330 247.3956 0001483 106.6705 253.4693 15.20201344 49621
CO3D 1                  
1 64903U 25156E   26168.81282340  .00004316  00000+0  20241-3 0  9997
2 64903  97.4329 247.3959 0001266 108.7280 251.4093 15.20201370 49624
PRSC-S1                 
1 65055U 25164A   26168.72802830  .00003849  00000+0  26795-3 0  9997
2 65055  41.1310 284.7669 0006514 347.4331  12.6319 15.06462716 48514
SENTINEL-6B             
1 66514U 25264A   26168.32005933 -.00000069  00000+0 -34174-4 0  9998
2 66514  66.0395 134.9024 0008016 269.1832  90.8264 12.80929950 27184
CAS500-3                
1 66655U 25274F   26168.75309135  .00001003  00000+0  11420-3 0  9998
2 66655  97.7445  96.7912 0006769 108.6905 251.5047 14.88322100 30238
CSG-3                   
1 67304U 26001A   26168.46908080  .00000233  00000+0  35797-4 0  9999
2 67304  97.8887 352.0668 0001379  94.6781 265.4590 14.82153956 24500
PRSC-E03                
1 68835U 26092A   26168.78472277  .00002147  00000+0  14915-3 0  9992
2 68835  38.0008  86.1566 0003602   9.2031 350.8796 15.06670977  8047
CAS500-2                
1 69013U 26100AK  26168.67863166  .00005136  00000+0  23718-3 0  9992
2 69013  97.4073  66.5250 0010665  33.2391 326.9512 15.20594961  6886
